NORAD_CAT_ID,OBJECT_NAME,OBJECT_TYPE,EPOCH,MEAN_MOTION,ECCENTRICITY,INCLINATION,RA_OF_ASC_NODE,ARG_OF_PERICENTER,MEAN_ANOMALY,BSTAR,MEAN_MOTION_DOT,MEAN_MOTION_DDOT,TLE_LINE0,TLE_LINE1,TLE_LINE2,SEMIMAJOR_AXIS,PERIOD,APOGEE,PERIGEE,DECAYED
53537.0,STARLINK-4120,PAYLOAD,2024-04-22 16:20:00,15.08830485,0.0001581,53.2174,273.703,105.9898,254.1268,5.0931e-05,5.22e-06,0.0,0 STARLINK-4120,1 53537U 22101L   24113.68056685  .00000522  00000-0  50931-4 0  9995,2 53537  53.2174 273.7030 0001581 105.9898 254.1268 15.08830485 92601,6917.909,95.438,540.868,538.681,0.0
53537.0,STARLINK-4120,PAYLOAD,2024-04-23 09:49:16,15.08827272,0.0001444,53.2172,270.4332,102.223,257.8923,8.268e-05,1.028e-05,0.0,0 STARLINK-4120,1 53537U 22101L   24114.40921314  .00001028  00000-0  82680-4 0  9994,2 53537  53.2172 270.4332 0001444 102.2230 257.8923 15.08827272 92716,6917.919,95.438,540.783,538.785,0.0
53537.0,STARLINK-4120,PAYLOAD,2024-04-23 14:35:25,15.08829285,0.0001457,53.2173,269.5417,103.7072,256.4083,9.6475e-05,1.247e-05,0.0,0 STARLINK-4120,1 53537U 22101L   24114.60793243  .00001247  00000-0  96475-4 0  9994,2 53537  53.2173 269.5417 0001457 103.7072 256.4083 15.08829285 92745,6917.913,95.438,540.786,538.77,0.0
53537.0,STARLINK-4120,PAYLOAD,2024-04-23 17:46:11,15.08834992,0.0001333,53.2167,268.9471,86.9374,273.1771,0.00014945,2.091e-05,0.0,0 STARLINK-4120,1 53537U 22101L   24114.74040920  .00002091  00000-0  14945-3 0  9995,2 53537  53.2167 268.9471 0001333  86.9374 273.1771 15.08834992 92764,6917.896,95.438,540.683,538.839,0.0
53537.0,STARLINK-4120,PAYLOAD,2024-04-24 14:26:12,15.08836036,0.0001375,53.217,265.0816,81.9289,278.1859,0.00010373,1.363e-05,0.0,0 STARLINK-4120,1 53537U 22101L   24115.60153369  .00001363  00000-0  10373-3 0  9995,2 53537  53.2170 265.0816 0001375  81.9289 278.1859 15.08836036 92892,6917.893,95.438,540.709,538.806,0.0
53537.0,STARLINK-4120,PAYLOAD,2024-04-24 16:01:35,15.08836179,0.0001426,53.217,264.7842,89.6951,270.4205,0.00011275,1.507e-05,0.0,0 STARLINK-4120,1 53537U 22101L   24115.66777329  .00001507  00000-0  11275-3 0  9991,2 53537  53.2170 264.7842 0001426  89.6951 270.4205 15.08836179 92905,6917.892,95.438,540.744,538.771,0.0
53537.0,STARLINK-4120,PAYLOAD,2024-04-25 14:16:59,15.08846602,0.0001446,53.2172,260.6211,77.5731,282.5423,8.8459e-05,1.12e-05,0.0,0 STARLINK-4120,1 53537U 22101L   24116.59512774  .00001120  00000-0  88459-4 0  9995,2 53537  53.2172 260.6211 0001446  77.5731 282.5423 15.08846602 93040,6917.86,95.437,540.726,538.725,0.0
53537.0,STARLINK-4120,PAYLOAD,2024-04-25 15:52:22,15.08844998,0.0001312,53.2172,260.3236,86.3873,273.7269,6.9873e-05,8.24e-06,0.0,0 STARLINK-4120,1 53537U 22101L   24116.66136835  .00000824  00000-0  69873-4 0  9992,2 53537  53.2172 260.3236 0001312  86.3873 273.7269 15.08844998 93058,6917.865,95.437,540.638,538.822,0.0
53537.0,STARLINK-4120,PAYLOAD,2024-04-26 12:32:23,15.0884209,0.0001316,53.2175,256.4577,93.0546,267.0597,1.2993e-05,-8.1e-07,0.0,0 STARLINK-4120,1 53537U 22101L   24117.52249062 -.00000081  00000-0  12993-4 0  9992,2 53537  53.2175 256.4577 0001316  93.0546 267.0597 15.08842090 93186,6917.874,95.437,540.649,538.829,0.0
53537.0,STARLINK-4120,PAYLOAD,2024-04-26 14:07:46,15.08842604,0.0001362,53.2178,256.1603,86.2348,273.88,1.4548e-05,-5.6e-07,0.0,0 STARLINK-4120,1 53537U 22101L   24117.58873037 -.00000056  00000-0  14548-4 0  9993,2 53537  53.2178 256.1603 0001362  86.2348 273.8800 15.08842604 93195,6917.872,95.437,540.68,538.795,0.0
53537.0,STARLINK-4120,PAYLOAD,2024-04-26 15:43:09,15.08843594,0.0001357,53.2179,255.8639,95.5653,264.5494,2.0835e-05,4.4e-07,0.0,0 STARLINK-4120,1 53537U 22101L   24117.65496898  .00000044  00000-0  20835-4 0  9999,2 53537  53.2179 255.8639 0001357  95.5653 264.5494 15.08843594 93204,6917.869,95.437,540.673,538.796,0.0
53537.0,STARLINK-4120,PAYLOAD,2024-04-27 13:58:33,15.08836108,0.0001382,53.2173,251.6963,99.7857,260.3291,3.5583e-05,2.78e-06,0.0,0 STARLINK-4120,1 53537U 22101L   24118.58233008  .00000278  00000-0  35583-4 0  9999,2 53537  53.2173 251.6963 0001382  99.7857 260.3291 15.08836108 93349,6917.892,95.438,540.713,538.801,0.0
53537.0,STARLINK-4120,PAYLOAD,2024-04-27 15:33:56,15.08833839,0.000128,53.2172,251.4,95.3548,264.759,1.2798e-05,-8.4e-07,0.0,0 STARLINK-4120,1 53537U 22101L   24118.64857247 -.00000084  00000-0  12798-4 0  9992,2 53537  53.2172 251.4000 0001280  95.3548 264.7590 15.08833839 93353,6917.899,95.438,540.65,538.879,0.0
53537.0,STARLINK-4120,PAYLOAD,2024-04-28 15:24:44,15.08828517,0.0001211,53.2173,246.9458,81.8999,278.213,-6.7855e-06,-3.96e-06,0.0,0 STARLINK-4120,1 53537U 22101L   24119.64218006 -.00000396  00000-0 -67855-5 0  9999,2 53537  53.2173 246.9458 0001211  81.8999 278.2130 15.08828517 93508,6917.915,95.438,540.618,538.943,0.0
53537.0,STARLINK-4120,PAYLOAD,2024-04-29 00:57:02,15.08842259,0.0001226,53.2176,245.1618,85.9687,274.1446,3.8844e-05,3.3e-06,0.0,0 STARLINK-4120,1 53537U 22101L   24120.03961102  .00000330  00000-0  38844-4 0  9997,2 53537  53.2176 245.1618 0001226  85.9687 274.1446 15.08842259 93565,6917.873,95.437,540.587,538.89,0.0
53537.0,STARLINK-4120,PAYLOAD,2024-04-29 12:04:45,15.08826482,0.0001607,53.2198,243.0848,107.651,252.4657,8.8714e-05,1.124e-05,0.0,0 STARLINK-4120,1 53537U 22101L   24120.50330056  .00001124  00000-0  88714-4 0  9990,2 53537  53.2198 243.0848 0001607 107.6510 252.4657 15.08826482 93632,6917.922,95.438,540.898,538.675,0.0
53537.0,STARLINK-4120,PAYLOAD,2024-04-29 15:15:31,15.08830636,0.0001453,53.2191,242.4886,98.4096,261.7061,8.2626e-05,1.027e-05,0.0,0 STARLINK-4120,1 53537U 22101L   24120.63577921  .00001027  00000-0  82626-4 0  9996,2 53537  53.2191 242.4886 0001453  98.4096 261.7061 15.08830636 93655,6917.909,95.438,540.779,538.769,0.0
53537.0,STARLINK-4120,PAYLOAD,2024-04-29 18:26:17,15.08837576,0.0001088,53.2168,241.8873,82.5874,277.5241,0.00011169,1.49e-05,0.0,0 STARLINK-4120,1 53537U 22101L   24120.76825358  .00001490  00000-0  11169-3 0  9997,2 53537  53.2168 241.8873 0001088  82.5874 277.5241 15.08837576 93677,6917.888,95.438,540.505,539.0,0.0
53537.0,STARLINK-4120,PAYLOAD,2024-04-30 00:47:49,15.08845141,0.0001118,53.2174,240.6988,86.4449,273.6671,0.00014858,2.078e-05,0.0,0 STARLINK-4120,1 53537U 22101L   24121.03320729  .00002078  00000-0  14858-3 0  9991,2 53537  53.2174 240.6988 0001118  86.4449 273.6671 15.08845141 93719,6917.865,95.437,540.503,538.956,0.0
53537.0,STARLINK-4120,PAYLOAD,2024-04-30 11:55:32,15.08835673,0.0002531,53.2174,238.6186,78.4687,281.6589,0.000142,1.972e-05,0.0,0 STARLINK-4120,1 53537U 22101L   24121.49689931  .00001972  00000-0  14200-3 0  9997,2 53537  53.2174 238.6186 0002531  78.4687 281.6589 15.08835673 93784,6917.894,95.438,541.51,538.008,0.0
53537.0,STARLINK-4120,PAYLOAD,2024-04-30 13:30:55,15.08829321,0.0001805,53.2183,238.3241,91.1798,268.9401,6.9402e-05,8.16e-06,0.0,0 STARLINK-4120,1 53537U 22101L   24121.56314382  .00000816  00000-0  69402-4 0  9991,2 53537  53.2183 238.3241 0001805  91.1798 268.9401 15.08829321 93796,6917.913,95.438,541.027,538.529,0.0
53537.0,STARLINK-4120,PAYLOAD,2024-04-30 15:06:18,15.08830391,0.0001423,53.2189,238.0285,95.7266,264.3888,6.8263e-05,7.98e-06,0.0,0 STARLINK-4120,1 53537U 22101L   24121.62938283  .00000798  00000-0  68263-4 0  9993,2 53537  53.2189 238.0285 0001423  95.7266 264.3888 15.08830391 93803,6917.91,95.438,540.759,538.79,0.0
53537.0,STARLINK-4120,PAYLOAD,2024-05-01 00:38:36,15.08845048,0.0001316,53.2176,236.2421,83.5857,276.5285,6.946e-05,8.18e-06,0.0,0 STARLINK-4120,1 53537U 22101L   24122.02681373  .00000818  00000-0  69460-4 0  9996,2 53537  53.2176 236.2421 0001316  83.5857 276.5285 15.08845048 93860,6917.865,95.437,540.64,538.82,0.0
53537.0,STARLINK-4120,PAYLOAD,2024-05-02 13:12:29,15.08824424,0.0001243,53.2165,229.4023,83.5798,276.5335,-3.3011e-05,-8.13e-06,0.0,0 STARLINK-4120,1 53537U 22101L   24123.55034659 -.00000813  00000-0 -33011-4 0  9994,2 53537  53.2165 229.4023 0001243  83.5798 276.5335 15.08824424 94090,6917.928,95.439,540.653,538.933,0.0
53537.0,STARLINK-4120,PAYLOAD,2024-05-03 00:20:10,15.08845339,0.0001263,53.2182,227.3202,82.7984,277.3152,8.2613e-07,-2.75e-06,0.0,0 STARLINK-4120,1 53537U 22101L   24124.01401359 -.00000275  00000-0  82613-6 0  9996,2 53537  53.2182 227.3202 0001263  82.7984 277.3152 15.08845339 94167,6917.864,95.437,540.603,538.855,0.0
53537.0,STARLINK-4120,PAYLOAD,2024-05-03 13:03:15,15.08831533,0.0001295,53.2171,224.939,95.9248,264.1892,0.00012396,1.685e-05,0.0,0 STARLINK-4120,1 53537U 22101L   24124.54393185  .00001685  00000-0  12396-3 0  9994,2 53537  53.2171 224.9390 0001295  95.9248 264.1892 15.08831533 94245,6917.906,95.438,540.667,538.875,0.0
53537.0,STARLINK-4120,PAYLOAD,2024-05-03 16:14:01,15.08837904,0.0001489,53.2179,224.343,97.6295,262.4866,0.00010763,1.425e-05,0.0,0 STARLINK-4120,1 53537U 22101L   24124.67641036  .00001425  00000-0  10763-3 0  9997,2 53537  53.2179 224.3430 0001489  97.6295 262.4866 15.08837904 94260,6917.887,95.438,540.782,538.722,0.0
53537.0,STARLINK-4120,PAYLOAD,2024-05-04 12:54:04,15.08828252,0.0001478,53.2181,220.4793,102.0151,258.1007,-7.5397e-05,-1.487e-05,0.0,0 STARLINK-4120,1 53537U 22101L   24125.53754716 -.00001487  00000-0 -75397-4 0  9998,2 53537  53.2181 220.4793 0001478 102.0151 258.1007 15.08828252 94391,6917.916,95.438,540.804,538.759,0.0
53537.0,STARLINK-4120,PAYLOAD,2024-05-05 12:44:49,15.08852344,0.0001346,53.217,216.0202,99.4747,260.6398,4.7994e-05,4.76e-06,0.0,0 STARLINK-4120,1 53537U 22101L   24126.53112955  .00000476  00000-0  47994-4 0  9999,2 53537  53.2170 216.0202 0001346  99.4747 260.6398 15.08852344 94546,6917.843,95.437,540.639,538.777,0.0
53537.0,STARLINK-4120,PAYLOAD,2024-05-06 12:35:37,15.08836112,0.0001166,53.2165,211.5608,90.4263,269.6863,9.2001e-05,1.177e-05,0.0,0 STARLINK-4120,1 53537U 22101L   24127.52473605  .00001177  00000-0  92001-4 0  9999,2 53537  53.2165 211.5608 0001166  90.4263 269.6863 15.08836112 94691,6917.892,95.438,540.564,538.951,0.0
